#aV2015  7  6  0  0  0.00000000     288 DD+AD WGS84 FIT  NGA
## 1852  86400.00000000   300.00000000 57209 0.0000000000000
+   31     1  2  3  4  5  6  7  9 10 11 12 13 14 15 16 17 18
+         19 20 21 22 23 24 25 26 27 28 29 30 31 32  0  0  0
+          0  0  0  0  0  0  0  0  0  0  0  0  0  0  0  0  0
+          0  0  0  0  0  0  0  0  0  0  0  0  0  0  0  0  0
+          0  0  0  0  0  0  0  0  0  0  0  0  0  0  0  0  0
++         2  2  2  2  2  2  2  2  2  2  2  2  2  2  2  2  2
++         2  2  2  2  2  2  2  2  2  2  2  2  2  2  0  0  0
++         0  0  0  0  0  0  0  0  0  0  0  0  0  0  0  0  0
++         0  0  0  0  0  0  0  0  0  0  0  0  0  0  0  0  0
++         0  0  0  0  0  0  0  0  0  0  0  0  0  0  0  0  0
%c cc cc ccc ccc cccc cccc cccc cccc ccccc ccccc ccccc ccccc
%c cc cc ccc ccc cccc cccc cccc cccc ccccc ccccc ccccc ccccc
%f  0.0000000  0.000000000  0.00000000000  0.000000000000000
%f  0.0000000  0.000000000  0.00000000000  0.000000000000000
%i    0    0    0    0      0      0      0      0         0
%i    0    0    0    0      0      0      0      0         0
/*      NGA, ST. LOUIS,MO.                                  
/*   EPHEMERIS COMPUTED FROM  1 DAYS OF DATA                
/*   EPOCHA SMOOTHER                                       
/* CCCCCCCCCCCCCCCCCCCCCCCCCCCCCCCCCCCCCCCCCCCCCCCCCCCCCCCCC
*  2015  7  6  5 50  0.00000000
P  1 -13659.220846  22538.927675   2220.647695     -3.292932                    
V  1  -1224.445572  -3931.672733  31759.818059      0.005506                    
P  2  17595.033164  -5255.342272 -18655.628742    576.484709                    
V  2  -8918.224275  23108.287367 -15070.753260      0.023865                    
P  3 -14100.694532  13349.958248 -18120.570059      3.258419                    
V  3 -23082.233171   -564.262487  17497.721327      0.052948                    
P  4 -17048.409176  17084.581852  10448.865148    -23.687837                    
V  4   3239.971197 -13901.372781  27423.521539     -0.026122                    
P  5  26462.534847  -2675.201272   1814.420383   -221.235756                    
V  5   2513.054923   2992.255987 -31191.872653      0.043720                    
P  6  12244.412558   9208.274766 -21698.005220     10.204553                    
V  6 -12894.166208  24339.201715   3045.972613      0.083392                    
P  7  -3847.414558  23428.661060  11608.418231    472.854639                    
V  7  -9196.824281  11711.877393 -27308.502680      0.021768                    
P  9   4781.187560  23157.745219 -12084.149960     -4.830136                    
V  9 -10370.660621 -11579.526437 -26324.304115     -0.030691                    
P 10  19769.474971  10313.754161 -15132.379126   -181.479234                    
V 10 -18328.722282   2754.080806 -22238.608668     -0.014250                    
P 11 -10924.882942  21782.280729   9889.049917   -589.575900                    
V 11  -2690.524167 -13986.482513  26528.815332     -0.024326                    
P 12  17001.608265 -11157.763660 -17069.197748    307.492008                    
V 12  21490.983932   1381.060125  20838.059009      0.032656                    
P 13  16480.770183   1834.758273  20581.677025   -129.655457                    
V 13  10841.932394  24130.859597 -10877.075291     -0.033776                    
P 14 -14919.262099 -21602.097566  -4301.398786     50.973939                    
V 14   -509.354077  -6240.313509  31152.946488     -0.027429                    
P 15  11818.924311 -10527.787830  21221.636843   -258.897633                    
V 15  16105.722920  22035.077540   2273.233324     -0.021168                    
P 16 -26706.627476    472.850824   1609.878729   -111.559626                    
V 16  -2082.263744  -1613.818073 -32059.914924      0.040142                    
P 17  15816.128132  20853.389235  -4841.841575   -178.914123                    
V 17   1292.900649   6730.881858  31101.989979     -0.015298                    
P 18  -6522.341834 -15515.156326  21096.116940    414.973411                    
V 18  25649.129405  -2285.908726   6107.418090      0.030368                    
P 19 -13149.368398   7041.035190  21768.897987   -515.191697                    
V 19 -13021.263694 -24909.907912    643.889065     -0.009833                    
P 20  17013.691696 -13516.847827  15184.613036    335.963747                    
V 20  19792.798687    390.868704 -21531.868760      0.032868                    
P 21     95.222396 -22967.196195  13740.939345   -461.349568                    
V 21   9923.854413 -13497.724978 -24213.054422     -0.032421                    
P 22 -18943.551922 -10642.230183  15629.936087    368.240034                    
V 22  19264.485443  -3800.290387  20906.795777      0.039687                    
P 23  -5586.014944  17059.539499 -19271.942470   -119.243171                    
V 23 -14772.267684 -20233.288544 -13955.747222     -0.023572                    
P 24  14710.070607 -21419.847538   5070.392399     -0.837144                    
V 24   -133.364507   7217.376455  30801.454168     -0.006959                    
P 25   3378.639781 -14866.213902 -21833.975142     -9.750103                    
V 25  27438.886495   -797.078782   4970.742754     -0.043828                    
P 26 -24614.476872  -4926.680366  -8693.628874     -5.157890                    
V 26  10890.710343  -3116.548865 -29097.088404     -0.044702                    
P 27 -18105.290411  -3926.043666  19054.739325      2.240084                    
V 27 -12037.349076 -21008.833601 -15630.213499      0.027670                    
P 28  14471.769242  12816.110184  18872.678786    451.657348                    
V 28 -22606.300233    223.681305  17692.043527      0.026069                    
P 29  -2092.766869 -22672.997097 -13697.876233    620.779460                    
V 29  10145.619290  14230.801167 -25025.646413      0.021287                    
P 30   4682.357444  17937.865375  18983.984295    -19.586221                    
V 30 -13952.852403  19784.156599 -15318.198435      0.075934                    
P 31 -13509.195488  -6236.319809 -21878.741368    310.727211                    
V 31  13780.403932 -24422.515381  -1213.407710     -0.011911                    
P 32 -24056.267137   5607.411816  -9026.776133   -107.291785                    
V 32 -11482.690384  -3827.545888  28836.626965      0.098798                    
EOF
